NORAD_CAT_ID,OBJECT_NAME,OBJECT_TYPE,EPOCH,MEAN_MOTION,ECCENTRICITY,INCLINATION,RA_OF_ASC_NODE,ARG_OF_PERICENTER,MEAN_ANOMALY,BSTAR,MEAN_MOTION_DOT,MEAN_MOTION_DDOT,TLE_LINE0,TLE_LINE1,TLE_LINE2,SEMIMAJOR_AXIS,PERIOD,APOGEE,PERIGEE,DECAYED
52830.0,STARLINK-4091,PAYLOAD,2023-03-01 08:15:32,15.08807691,7.43e-05,53.2168,311.7204,143.3191,216.7853,0.0015068,0.00023753,0.0,0 STARLINK-4091,1 52830U 22062A   23060.34412171  .00023753  00000-0  15068-2 0  9996,2 52830  53.2168 311.7204 0000743 143.3191 216.7853 15.08807691 39569,6917.979,95.44,540.358,539.33,0.0
52830.0,STARLINK-4091,PAYLOAD,2023-03-01 22:34:00,15.0884046,6.9e-05,53.2162,309.045,150.5187,209.5844,0.0013711,0.00021601,0.0,0 STARLINK-4091,1 52830U 22062A   23060.94028514  .00021601  00000-0  13711-2 0  9999,2 52830  53.2162 309.0450 0000690 150.5187 209.5844 15.08840460 39158,6917.879,95.438,540.221,539.267,0.0
52830.0,STARLINK-4091,PAYLOAD,2023-03-02 19:14:01,15.08857784,6.09e-05,53.2171,305.1791,105.952,254.1539,0.0012323,0.00019388,0.0,0 STARLINK-4091,1 52830U 22062A   23061.80140359  .00019388  00000-0  12323-2 0  9994,2 52830  53.2171 305.1791 0000609 105.9520 254.1539 15.08857784 39286,6917.826,95.436,540.112,539.27,0.0
52830.0,STARLINK-4091,PAYLOAD,2023-03-03 01:35:33,15.0887868,5.49e-05,53.2164,303.9897,155.1454,204.9565,0.0018478,0.00029273,0.0,0 STARLINK-4091,1 52830U 22062A   23062.06635611  .00029273  00000-0  18478-2 0  9994,2 52830  53.2164 303.9897 0000549 155.1454 204.9565 15.08878680 39827,6917.762,95.435,540.007,539.247,0.0
52830.0,STARLINK-4091,PAYLOAD,2023-03-03 22:15:33,15.08877341,5.37e-05,53.2167,300.1242,93.6066,266.4988,0.0016835,0.00026634,0.0,0 STARLINK-4091,1 52830U 22062A   23062.92746839  .00026634  00000-0  16835-2 0  9997,2 52830  53.2167 300.1242 0000537  93.6066 266.4988 15.08877341 39954,6917.766,95.435,540.003,539.26,0.0
52830.0,STARLINK-4091,PAYLOAD,2023-03-04 01:26:19,15.0888215,5.84e-05,53.2168,299.5288,97.2899,262.816,0.0015882,0.00025108,0.0,0 STARLINK-4091,1 52830U 22062A   23063.05994484  .00025108  00000-0  15882-2 0  9999,2 52830  53.2168 299.5288 0000584  97.2899 262.8160 15.08882150 39475,6917.752,95.435,540.021,539.213,0.0
52830.0,STARLINK-4091,PAYLOAD,2023-03-04 15:44:48,15.0882984,0.0001131,53.2171,296.852,92.2953,267.8169,0.0011285,0.00017713,0.0,0 STARLINK-4091,1 52830U 22062A   23063.65611451  .00017713  00000-0  11285-2 0  9991,2 52830  53.2171 296.8520 0001131  92.2953 267.8169 15.08829840 40061,6917.911,95.438,540.559,538.994,0.0
52830.0,STARLINK-4091,PAYLOAD,2023-03-05 01:17:07,15.08830684,5.89e-05,53.2176,295.067,81.6821,278.4238,0.00057429,8.862e-05,0.0,0 STARLINK-4091,1 52830U 22062A   23064.05355769  .00008862  00000-0  57429-3 0  9999,2 52830  53.2176 295.0670 0000589  81.6821 278.4238 15.08830684 40125,6917.909,95.438,540.181,539.366,0.0
52830.0,STARLINK-4091,PAYLOAD,2023-03-05 21:57:08,15.08850875,5.59e-05,53.2168,291.2034,49.0414,311.0626,0.00096555,0.00015117,0.0,0 STARLINK-4091,1 52830U 22062A   23064.91468037  .00015117  00000-0  96555-3 0  9991,2 52830  53.2168 291.2034 0000559  49.0414 311.0626 15.08850875 39757,6917.847,95.437,540.099,539.325,0.0
52830.0,STARLINK-4091,PAYLOAD,2023-03-06 01:07:54,15.08860001,7.47e-05,53.2161,290.607,55.7741,304.3322,0.0014079,0.00022202,0.0,0 STARLINK-4091,1 52830U 22062A   23065.04715971  .00022202  00000-0  14079-2 0  9991,2 52830  53.2161 290.6070 0000747  55.7741 304.3322 15.08860001 40278,6917.819,95.436,540.201,539.167,0.0
52830.0,STARLINK-4091,PAYLOAD,2023-03-06 21:47:55,15.0885653,8.72e-05,53.2151,286.7386,32.6078,327.4968,0.00080688,0.00012583,0.0,0 STARLINK-4091,1 52830U 22062A   23065.90828063  .00012583  00000-0  80688-3 0  9994,2 52830  53.2151 286.7386 0000872  32.6078 327.4968 15.08856530 39901,6917.83,95.437,540.298,539.092,0.0
52830.0,STARLINK-4091,PAYLOAD,2023-03-06 23:23:18,15.08849758,9.01e-05,53.216,286.4434,58.3871,301.7209,0.00052955,8.152e-05,0.0,0 STARLINK-4091,1 52830U 22062A   23065.97452042  .00008152  00000-0  52955-3 0  9994,2 52830  53.2160 286.4434 0000901  58.3871 301.7209 15.08849758 40416,6917.851,95.437,540.339,539.092,0.0
52830.0,STARLINK-4091,PAYLOAD,2023-03-07 13:41:46,15.08841046,0.0001175,53.2161,283.7693,76.6839,283.4284,0.00027399,4.075e-05,0.0,0 STARLINK-4091,1 52830U 22062A   23066.57068238  .00004075  00000-0  27399-3 0  9995,2 52830  53.2161 283.7693 0001175  76.6839 283.4284 15.08841046 40506,6917.877,95.437,540.555,538.929,0.0
52830.0,STARLINK-4091,PAYLOAD,2023-03-08 15:07:57,15.0884518,0.0001178,53.2167,279.0103,70.3465,289.7654,0.00027481,4.089e-05,0.0,0 STARLINK-4091,1 52830U 22062A   23067.63052235  .00004089  00000-0  27481-3 0  9990,2 52830  53.2167 279.0103 0001178  70.3465 289.7654 15.08845180 40665,6917.865,95.437,540.544,538.915,0.0
52830.0,STARLINK-4091,PAYLOAD,2023-03-08 23:04:53,15.08840732,0.0001182,53.2153,277.5229,67.3326,292.7791,0.00017536,2.504e-05,0.0,0 STARLINK-4091,1 52830U 22062A   23067.96172559  .00002504  00000-0  17536-3 0  9998,2 52830  53.2153 277.5229 0001182  67.3326 292.7791 15.08840732 40719,6917.878,95.438,540.561,538.925,0.0
52830.0,STARLINK-4091,PAYLOAD,2023-03-09 21:20:16,15.08853817,9.05e-05,53.2168,273.3606,45.3868,314.7198,0.00027893,4.156e-05,0.0,0 STARLINK-4091,1 52830U 22062A   23068.88907985  .00004156  00000-0  27893-3 0  9991,2 52830  53.2168 273.3606 0000905  45.3868 314.7198 15.08853817 40351,6917.838,95.437,540.329,539.077,0.0
52830.0,STARLINK-4091,PAYLOAD,2023-03-10 06:52:35,15.08841235,9.67e-05,53.2165,271.577,71.0385,289.0711,0.00020601,2.993e-05,0.0,0 STARLINK-4091,1 52830U 22062A   23069.28652441  .00002993  00000-0  20601-3 0  9997,2 52830  53.2165 271.5770 0000967  71.0385 289.0711 15.08841235 40916,6917.877,95.437,540.411,539.073,0.0
52830.0,STARLINK-4091,PAYLOAD,2023-03-10 19:35:41,15.08835268,0.000109,53.2155,269.1969,80.3105,279.801,9.5514e-05,1.232e-05,0.0,0 STARLINK-4091,1 52830U 22062A   23069.81644959  .00001232  00000-0  95514-4 0  9992,2 52830  53.2155 269.1969 0001090  80.3105 279.8010 15.08835268 40995,6917.895,95.438,540.514,539.006,0.0
52830.0,STARLINK-4091,PAYLOAD,2023-03-11 13:04:55,15.08845223,9.86e-05,53.216,265.9256,71.274,288.8359,4.2825e-05,3.94e-06,0.0,0 STARLINK-4091,1 52830U 22062A   23070.54508640  .00000394  00000-0  42825-4 0  9995,2 52830  53.2160 265.9256 0000986  71.2740 288.8359 15.08845223 40607,6917.864,95.437,540.412,539.047,0.0
52830.0,STARLINK-4091,PAYLOAD,2023-03-11 16:15:41,15.08846509,9.98e-05,53.2157,265.3315,71.1396,288.9705,0.00010157,1.329e-05,0.0,0 STARLINK-4091,1 52830U 22062A   23070.67756530  .00001329  00000-0  10157-3 0  9993,2 52830  53.2157 265.3315 0000998  71.1396 288.9705 15.08846509 40628,6917.86,95.437,540.416,539.035,0.0
52830.0,STARLINK-4091,PAYLOAD,2023-03-11 22:37:13,15.08850849,9.78e-05,53.2154,264.1414,69.9523,290.1574,0.00014937,2.091e-05,0.0,0 STARLINK-4091,1 52830U 22062A   23070.94252240  .00002091  00000-0  14937-3 0  9999,2 52830  53.2154 264.1414 0000978  69.9523 290.1574 15.08850849 41168,6917.847,95.437,540.389,539.036,0.0
52830.0,STARLINK-4091,PAYLOAD,2023-03-12 12:55:42,15.08839104,0.0001007,53.2157,261.4656,74.7905,285.3198,0.00015708,2.213e-05,0.0,0 STARLINK-4091,1 52830U 22062A   23071.53868957  .00002213  00000-0  15708-3 0  9996,2 52830  53.2157 261.4656 0001007  74.7905 285.3198 15.08839104 41250,6917.883,95.438,540.445,539.051,0.0
52830.0,STARLINK-4091,PAYLOAD,2023-03-12 20:52:38,15.08844834,0.0001142,53.2154,259.9795,70.2802,289.8313,0.00019595,2.832e-05,0.0,0 STARLINK-4091,1 52830U 22062A   23071.86988753  .00002832  00000-0  19595-3 0  9994,2 52830  53.2154 259.9795 0001142  70.2802 289.8313 15.08844834 40804,6917.866,95.437,540.521,538.941,0.0
52830.0,STARLINK-4091,PAYLOAD,2023-03-13 12:46:29,15.08837218,0.0001027,53.2165,257.0025,107.3872,252.7232,-4.846e-05,-1.059e-05,0.0,0 STARLINK-4091,1 52830U 22062A   23072.53228860 -.00001059  00000-0 -48460-4 0  9991,2 52830  53.2165 257.0025 0001027 107.3872 252.7232 15.08837218 40900,6917.889,95.438,540.464,539.043,0.0
52830.0,STARLINK-4091,PAYLOAD,2023-03-13 22:18:48,15.08843099,0.0001068,53.2162,255.2195,100.8124,259.2989,0.00012965,1.776e-05,0.0,0 STARLINK-4091,1 52830U 22062A   23072.92972766  .00001776  00000-0  12965-3 0  9999,2 52830  53.2162 255.2195 0001068 100.8124 259.2989 15.08843099 40969,6917.871,95.437,540.475,538.997,0.0
52830.0,STARLINK-4091,PAYLOAD,2023-03-14 12:37:16,15.08844173,0.0001016,53.2148,252.5431,90.75,269.3609,0.0002067,3.004e-05,0.0,0 STARLINK-4091,1 52830U 22062A   23073.52588941  .00003004  00000-0  20670-3 0  9992,2 52830  53.2148 252.5431 0001016  90.7500 269.3609 15.08844173 41050,6917.868,95.437,540.435,539.03,0.0
52830.0,STARLINK-4091,PAYLOAD,2023-03-14 20:34:12,15.08854749,0.0001222,53.2146,251.0576,86.7241,273.3891,0.00040007,6.087e-05,0.0,0 STARLINK-4091,1 52830U 22062A   23073.85708503  .00006087  00000-0  40007-3 0  9996,2 52830  53.2146 251.0576 0001222  86.7241 273.3891 15.08854749 41102,6917.835,95.437,540.546,538.855,0.0
52830.0,STARLINK-4091,PAYLOAD,2023-03-15 04:31:07,15.08856744,8.66e-05,53.2147,249.5696,84.8575,275.2516,0.00040476,6.163e-05,0.0,0 STARLINK-4091,1 52830U 22062A   23074.18828219  .00006163  00000-0  40476-3 0  9995,2 52830  53.2147 249.5696 0000866  84.8575 275.2516 15.08856744 41652,6917.829,95.436,540.293,539.095,0.0
52830.0,STARLINK-4091,PAYLOAD,2023-03-15 10:52:40,15.08852382,0.0001901,53.2125,248.3815,79.3487,280.7719,0.00029625,4.431e-05,0.0,0 STARLINK-4091,1 52830U 22062A   23074.45324502  .00004431  00000-0  29625-3 0  9990,2 52830  53.2125 248.3815 0001901  79.3487 280.7719 15.08852382 41694,6917.843,95.437,541.023,538.392,0.0
52830.0,STARLINK-4091,PAYLOAD,2023-03-15 20:24:59,15.08842744,0.000183,53.2144,246.5966,79.7799,280.3399,2.0204e-05,3.3e-07,0.0,0 STARLINK-4091,1 52830U 22062A   23074.85068656  .00000033  00000-0  20204-4 0  9998,2 52830  53.2144 246.5966 0001830  79.7799 280.3399 15.08842744 41751,6917.872,95.437,541.003,538.471,0.0
